{
  "type": "FeatureCollection",
  "features": [
    {
      "type": "Feature",
      "properties": {
        "norad_id": 66434,
        "name": "STARLINK-35389",
        "group": "last-30-days",
        "lat": -11.63217983158933,
        "lon": -66.36799125368944,
        "alt_km": 415.7516136907625,
        "timestamp": "2025-12-03T13:52:08.345190+00:00",
        "meta_object_name": "STARLINK-35389",
        "meta_object_id": "2025-259N",
        "meta_epoch": "2025-12-03T08:00:01.999872",
        "meta_mean_motion": 15.50621683,
        "meta_eccentricity": 0.00014692,
        "meta_inclination": 43.0001,
        "meta_ra_of_asc_node": 102.3001,
        "meta_arg_of_pericenter": 258.4124,
        "meta_mean_anomaly": 12.1502,
        "meta_ephemeris_type": 0,
        "meta_classification_type": "U",
        "meta_norad_cat_id": 66434,
        "meta_element_set_no": 999,
        "meta_rev_at_epoch": 476,
        "meta_bstar": -0.0017171451,
        "meta_mean_motion_dot": -0.00099954,
        "meta_mean_motion_ddot": 0,
        "tle_line1": "1 66434U 25259N   25337.33335648 -.00099954  00000+0 -17171-2 0  9997",
        "tle_line2": "2 66434  43.0001 102.3001 0001469 258.4124  12.1502 15.50621683  4761"
      },
      "geometry": {
        "type": "Point",
        "coordinates": [
          -66.36799125368944,
          -11.63217983158933
        ]
      }
    },
    {
      "type": "Feature",
      "properties": {
        "norad_id": 66435,
        "name": "STARLINK-35502",
        "group": "last-30-days",
        "lat": -12.901310392599523,
        "lon": -64.90492009189404,
        "alt_km": 416.0138321925533,
        "timestamp": "2025-12-03T13:52:08.345201+00:00",
        "meta_object_name": "STARLINK-35502",
        "meta_object_id": "2025-259P",
        "meta_epoch": "2025-12-03T08:00:01.999872",
        "meta_mean_motion": 15.50636858,
        "meta_eccentricity": 0.00014343,
        "meta_inclination": 43,
        "meta_ra_of_asc_node": 102.2962,
        "meta_arg_of_pericenter": 268.7284,
        "meta_mean_anomaly": 3.7412,
        "meta_ephemeris_type": 0,
        "meta_classification_type": "U",
        "meta_norad_cat_id": 66435,
        "meta_element_set_no": 999,
        "meta_rev_at_epoch": 476,
        "meta_bstar": -0.0020741159,
        "meta_mean_motion_dot": -0.00120415,
        "meta_mean_motion_ddot": 0,
        "tle_line1": "1 66435U 25259P   25337.33335648 -.00120415  00000+0 -20741-2 0  9992",
        "tle_line2": "2 66435  43.0000 102.2962 0001434 268.7284   3.7412 15.50636858  4765"
      },
      "geometry": {
        "type": "Point",
        "coordinates": [
          -64.90492009189404,
          -12.901310392599523
        ]
      }
    },
    {
      "type": "Feature",
      "properties": {
        "norad_id": 66436,
        "name": "STARLINK-35501",
        "group": "last-30-days",
        "lat": -15.426433593983175,
        "lon": -61.92025610831068,
        "alt_km": 415.93173391175606,
        "timestamp": "2025-12-03T13:52:08.345211+00:00",
        "meta_object_name": "STARLINK-35501",
        "meta_object_id": "2025-259Q",
        "meta_epoch": "2025-12-03T08:00:01.999872",
        "meta_mean_motion": 15.5073439,
        "meta_eccentricity": 0.00013405,
        "meta_inclination": 43.0002,
        "meta_ra_of_asc_node": 102.2857,
        "meta_arg_of_pericenter": 251.3381,
        "meta_mean_anomaly": 24.9254,
        "meta_ephemeris_type": 0,
        "meta_classification_type": "U",
        "meta_norad_cat_id": 66436,
        "meta_element_set_no": 999,
        "meta_rev_at_epoch": 476,
        "meta_bstar": -0.00473048,
        "meta_mean_motion_dot": -0.00269995,
        "meta_mean_motion_ddot": 0,
        "tle_line1": "1 66436U 25259Q   25337.33335648 -.00269995  00000+0 -47305-2 0  9995",
        "tle_line2": "2 66436  43.0002 102.2857 0001340 251.3381  24.9254 15.50734390  4762"
      },
      "geometry": {
        "type": "Point",
        "coordinates": [
          -61.92025610831068,
          -15.426433593983175
        ]
      }
    },
    {
      "type": "Feature",
      "properties": {
        "norad_id": 66437,
        "name": "STARLINK-35474",
        "group": "last-30-days",
        "lat": -16.65274565430887,
        "lon": -60.42661808804628,
        "alt_km": 416.1380429667697,
        "timestamp": "2025-12-03T13:52:08.345221+00:00",
        "meta_object_name": "STARLINK-35474",
        "meta_object_id": "2025-259R",
        "meta_epoch": "2025-12-03T08:00:01.999872",
        "meta_mean_motion": 15.5070232,
        "meta_eccentricity": 0.00013041,
        "meta_inclination": 43.0003,
        "meta_ra_of_asc_node": 102.2814,
        "meta_arg_of_pericenter": 260.0045,
        "meta_mean_anomaly": 18.1643,
        "meta_ephemeris_type": 0,
        "meta_classification_type": "U",
        "meta_norad_cat_id": 66437,
        "meta_element_set_no": 999,
        "meta_rev_at_epoch": 476,
        "meta_bstar": -0.003483882,
        "meta_mean_motion_dot": -0.00200457,
        "meta_mean_motion_ddot": 0,
        "tle_line1": "1 66437U 25259R   25337.33335648 -.00200457  00000+0 -34839-2 0  9992",
        "tle_line2": "2 66437  43.0003 102.2814 0001304 260.0045  18.1643 15.50702320  4766"
      },
      "geometry": {
        "type": "Point",
        "coordinates": [
          -60.42661808804628,
          -16.65274565430887
        ]
      }
    },
    {
      "type": "Feature",
      "properties": {
        "norad_id": 66438,
        "name": "STARLINK-34681",
        "group": "last-30-days",
        "lat": -17.900360703394593,
        "lon": -58.87333974037789,
        "alt_km": 416.2997588352637,
        "timestamp": "2025-12-03T13:52:08.345233+00:00",
        "meta_object_name": "STARLINK-34681",
        "meta_object_id": "2025-259S",
        "meta_epoch": "2025-12-03T08:00:01.999872",
        "meta_mean_motion": 15.50771367,
        "meta_eccentricity": 0.00013412,
        "meta_inclination": 43,
        "meta_ra_of_asc_node": 102.2767,
        "meta_arg_of_pericenter": 267.5998,
        "meta_mean_anomaly": 12.4789,
        "meta_ephemeris_type": 0,
        "meta_classification_type": "U",
        "meta_norad_cat_id": 66438,
        "meta_element_set_no": 999,
        "meta_rev_at_epoch": 466,
        "meta_bstar": -0.0055983666,
        "meta_mean_motion_dot": -0.00317962,
        "meta_mean_motion_ddot": 0,
        "tle_line1": "1 66438U 25259S   25337.33335648 -.00317962  00000+0 -55984-2 0  9997",
        "tle_line2": "2 66438  43.0000 102.2767 0001341 267.5998  12.4789 15.50771367  4665"
      },
      "geometry": {
        "type": "Point",
        "coordinates": [
          -58.87333974037789,
          -17.900360703394593
        ]
      }
    },
    {
      "type": "Feature",
      "properties": {
        "norad_id": 66439,
        "name": "STARLINK-35327",
        "group": "last-30-days",
        "lat": -14.167081920661927,
        "lon": -63.42039548624208,
        "alt_km": 416.2954258119971,
        "timestamp": "2025-12-03T13:52:08.345243+00:00",
        "meta_object_name": "STARLINK-35327",
        "meta_object_id": "2025-259T",
        "meta_epoch": "2025-12-03T08:00:01.999872",
        "meta_mean_motion": 15.50606807,
        "meta_eccentricity": 0.00013625,
        "meta_inclination": 43,
        "meta_ra_of_asc_node": 102.293,
        "meta_arg_of_pericenter": 275.7682,
        "meta_mean_anomaly": 358.6459,
        "meta_ephemeris_type": 0,
        "meta_classification_type": "U",
        "meta_norad_cat_id": 66439,
        "meta_element_set_no": 999,
        "meta_rev_at_epoch": 476,
        "meta_bstar": -0.0017252791,
        "meta_mean_motion_dot": -0.00100367,
        "meta_mean_motion_ddot": 0,
        "tle_line1": "1 66439U 25259T   25337.33335648 -.00100367  00000+0 -17253-2 0  9994",
        "tle_line2": "2 66439  43.0000 102.2930 0001362 275.7682 358.6459 15.50606807  4768"
      },
      "geometry": {
        "type": "Point",
        "coordinates": [
          -63.42039548624208,
          -14.167081920661927
        ]
      }
    },
    {
      "type": "Feature",
      "properties": {
        "norad_id": 66440,
        "name": "STARLINK-35405",
        "group": "last-30-days",
        "lat": -19.110335712252013,
        "lon": -57.33005665520799,
        "alt_km": 416.3974877760447,
        "timestamp": "2025-12-03T13:52:08.345253+00:00",
        "meta_object_name": "STARLINK-35405",
        "meta_object_id": "2025-259U",
        "meta_epoch": "2025-12-03T08:00:01.999872",
        "meta_mean_motion": 15.50697163,
        "meta_eccentricity": 0.00014391,
        "meta_inclination": 43.0002,
        "meta_ra_of_asc_node": 102.2727,
        "meta_arg_of_pericenter": 268.2737,
        "meta_mean_anomaly": 13.7479,
        "meta_ephemeris_type": 0,
        "meta_classification_type": "U",
        "meta_norad_cat_id": 66440,
        "meta_element_set_no": 999,
        "meta_rev_at_epoch": 476,
        "meta_bstar": -0.0035320661,
        "meta_mean_motion_dot": -0.00203122,
        "meta_mean_motion_ddot": 0,
        "tle_line1": "1 66440U 25259U   25337.33335648 -.00203122  00000+0 -35321-2 0  9995",
        "tle_line2": "2 66440  43.0002 102.2727 0001439 268.2737  13.7479 15.50697163  4765"
      },
      "geometry": {
        "type": "Point",
        "coordinates": [
          -57.33005665520799,
          -19.110335712252013
        ]
      }
    }
  ]
}